start=new Date('2022-03-13T00:00:00.000Z').valueOf();
sats=[{"INCLINATION":"53.0532","COUNTRY_CODE":"US","OBJECT_TYPE":"PAYLOAD","TLE_LINE1":"1 48298U 21036Y   22071.90164878 -.00005372  00000-0 -34196-3 0  9993","TIME_SYSTEM":"UTC","DECAY_DATE":null,"RCS_SIZE":"LARGE","RA_OF_ASC_NODE":"145.8863","LAUNCH_DATE":"2021-04-29","PERIAPSIS":"546.015","CLASSIFICATION_TYPE":"U","TLE_LINE2":"2 48298  53.0532 145.8863 0001720  60.4446 299.6714 15.06402253 48592","MEAN_MOTION":"15.06402253","MEAN_ANOMALY":"299.6714","MEAN_ELEMENT_THEORY":"SGP4","GP_ID":"198604741","EPHEMERIS_TYPE":"0","SEMIMAJOR_AXIS":"6925.342","FILE":"3356931","OBJECT_NAME":"STARLINK-2559","MEAN_MOTION_DOT":"-0.00005372","OBJECT_ID":"2021-036Y","ARG_OF_PERICENTER":"60.4446","PERIOD":"95.592","ELEMENT_SET_NO":"999","REF_FRAME":"TEME","EPOCH":"2022-03-12T21:38:22.454592","NORAD_CAT_ID":"48298","ECCENTRICITY":"0.00017200","CENTER_NAME":"EARTH","BSTAR":"-0.00034196000000","REV_AT_EPOCH":"4859","SITE":"AFETR","MEAN_MOTION_DDOT":"0.0000000000000","APOAPSIS":"548.398"},{"MEAN_ELEMENT_THEORY":"SGP4","GP_ID":"198605493","EPHEMERIS_TYPE":"0","MEAN_MOTION":"15.06405403","MEAN_ANOMALY":"308.7014","RCS_SIZE":"LARGE","RA_OF_ASC_NODE":"145.9054","LAUNCH_DATE":"2021-04-29","PERIAPSIS":"545.968","CLASSIFICATION_TYPE":"U","TLE_LINE2":"2 48299  53.0522 145.9054 0001775  51.4134 308.7014 15.06405403 48594","INCLINATION":"53.0522","COUNTRY_CODE":"US","OBJECT_TYPE":"PAYLOAD","TLE_LINE1":"1 48299U 21036Z   22071.89796947 -.00001453  00000-0 -78633-4 0  9991","TIME_SYSTEM":"UTC","DECAY_DATE":null,"BSTAR":"-0.00007863300000","REV_AT_EPOCH":"4859","SITE":"AFETR","MEAN_MOTION_DDOT":"0.0000000000000","APOAPSIS":"548.426","EPOCH":"2022-03-12T21:33:04.562208","NORAD_CAT_ID":"48299","ECCENTRICITY":"0.00017750","CENTER_NAME":"EARTH","ARG_OF_PERICENTER":"51.4134","OBJECT_ID":"2021-036Z","PERIOD":"95.592","ELEMENT_SET_NO":"999","REF_FRAME":"TEME","FILE":"3356931","SEMIMAJOR_AXIS":"6925.332","OBJECT_NAME":"STARLINK-2557","MEAN_MOTION_DOT":"-0.00001453"},{"TLE_LINE1":"1 48300U 21036AA  22071.75697233 -.00000447  00000-0 -11093-4 0  9996","OBJECT_TYPE":"PAYLOAD","COUNTRY_CODE":"US","INCLINATION":"53.0528","DECAY_DATE":null,"TIME_SYSTEM":"UTC","LAUNCH_DATE":"2021-04-29","RA_OF_ASC_NODE":"156.5450","RCS_SIZE":"LARGE","TLE_LINE2":"2 48300  53.0528 156.5450 0001396  64.2045 295.9088 15.06402481 48437","CLASSIFICATION_TYPE":"U","PERIAPSIS":"546.239","MEAN_ANOMALY":"295.9088","MEAN_MOTION":"15.06402481","EPHEMERIS_TYPE":"0","GP_ID":"198605243","MEAN_ELEMENT_THEORY":"SGP4","OBJECT_NAME":"STARLINK-2538","SEMIMAJOR_AXIS":"6925.341","FILE":"3356931","MEAN_MOTION_DOT":"-0.00000447","OBJECT_ID":"2021-036AA","ARG_OF_PERICENTER":"64.2045","ELEMENT_SET_NO":"999","REF_FRAME":"TEME","PERIOD":"95.592","NORAD_CAT_ID":"48300","EPOCH":"2022-03-12T18:10:02.409312","ECCENTRICITY":"0.00013960","CENTER_NAME":"EARTH","SITE":"AFETR","REV_AT_EPOCH":"4843","BSTAR":"-0.00001109300000","APOAPSIS":"548.173","MEAN_MOTION_DDOT":"0.0000000000000"},{"LAUNCH_DATE":"2021-04-29","RA_OF_ASC_NODE":"157.4434","RCS_SIZE":"LARGE","TLE_LINE2":"2 48301  53.0557 157.4434 0001341  60.6799 299.4324 15.06395780 48972","CLASSIFICATION_TYPE":"U","PERIAPSIS":"546.298","TLE_LINE1":"1 48301U 21036AB  22071.55426827  .00000100  00000-0  25634-4 0  9994","OBJECT_TYPE":"PAYLOAD","COUNTRY_CODE":"US","INCLINATION":"53.0557","DECAY_DATE":null,"TIME_SYSTEM":"UTC","EPHEMERIS_TYPE":"0","GP_ID":"198574588","MEAN_ELEMENT_THEORY":"SGP4","MEAN_ANOMALY":"299.4324","MEAN_MOTION":"15.06395780","OBJECT_ID":"2021-036AB","ARG_OF_PERICENTER":"60.6799","ELEMENT_SET_NO":"999","REF_FRAME":"TEME","PERIOD":"95.592","OBJECT_NAME":"STARLINK-2537","SEMIMAJOR_AXIS":"6925.361","FILE":"3356614","MEAN_MOTION_DOT":"0.00000100","SITE":"AFETR","REV_AT_EPOCH":"4897","BSTAR":"0.00002563400000","APOAPSIS":"548.155","MEAN_MOTION_DDOT":"0.0000000000000","NORAD_CAT_ID":"48301","EPOCH":"2022-03-12T13:18:08.778528","CENTER_NAME":"EARTH","ECCENTRICITY":"0.00013410"},{"OBJECT_ID":"2021-036AC","ARG_OF_PERICENTER":"56.5073","ELEMENT_SET_NO":"999","REF_FRAME":"TEME","PERIOD":"95.591","OBJECT_NAME":"STARLINK-2556","SEMIMAJOR_AXIS":"6925.302","FILE":"3356931","MEAN_MOTION_DOT":"-0.00001302","SITE":"AFETR","REV_AT_EPOCH":"4842","BSTAR":"-0.00006845000000","APOAPSIS":"548.464","MEAN_MOTION_DDOT":"0.0000000000000","NORAD_CAT_ID":"48302","EPOCH":"2022-03-12T17:59:25.937664","ECCENTRICITY":"0.00018730","CENTER_NAME":"EARTH","LAUNCH_DATE":"2021-04-29","RA_OF_ASC_NODE":"156.5791","RCS_SIZE":"LARGE","TLE_LINE2":"2 48302  53.0549 156.5791 0001873  56.5073 303.6095 15.06415217 48420","CLASSIFICATION_TYPE":"U","PERIAPSIS":"545.870","TLE_LINE1":"1 48302U 21036AC  22071.74960576 -.00001302  00000-0 -68450-4 0  9990","OBJECT_TYPE":"PAYLOAD","INCLINATION":"53.0549","COUNTRY_CODE":"US","DECAY_DATE":null,"TIME_SYSTEM":"UTC","EPHEMERIS_TYPE":"0","GP_ID":"198604241","MEAN_ELEMENT_THEORY":"SGP4","MEAN_ANOMALY":"303.6095","MEAN_MOTION":"15.06415217"},{"EPHEMERIS_TYPE":"0","MEAN_ELEMENT_THEORY":"SGP4","GP_ID":"198604993","MEAN_ANOMALY":"292.9775","MEAN_MOTION":"15.06413773","LAUNCH_DATE":"2021-04-29","RA_OF_ASC_NODE":"157.1800","RCS_SIZE":"LARGE","TLE_LINE2":"2 48303  53.0550 157.1800 0001455  67.1368 292.9775 15.06413773 48400","CLASSIFICATION_TYPE":"U","PERIAPSIS":"546.164","TLE_LINE1":"1 48303U 21036AD  22071.61321909  .00002092  00000-0  15927-3 0  9993","OBJECT_TYPE":"PAYLOAD","COUNTRY_CODE":"US","INCLINATION":"53.0550","DECAY_DATE":null,"TIME_SYSTEM":"UTC","SITE":"AFETR","REV_AT_EPOCH":"4840","BSTAR":"0.00015927000000","APOAPSIS":"548.179","MEAN_MOTION_DDOT":"0.0000000000000","NORAD_CAT_ID":"48303","EPOCH":"2022-03-12T14:43:02.129376","ECCENTRICITY":"0.00014550","CENTER_NAME":"EARTH","OBJECT_ID":"2021-036AD","ARG_OF_PERICENTER":"67.1368","REF_FRAME":"TEME","ELEMENT_SET_NO":"999","PERIOD":"95.591","OBJECT_NAME":"STARLINK-2530","FILE":"3356931","SEMIMAJOR_AXIS":"6925.306","MEAN_MOTION_DOT":"0.00002092"},{"TLE_LINE1":"1 48304U 21036AE  22071.54320947 -.00000365  00000-0 -55822-5 0  9990","INCLINATION":"53.0553","COUNTRY_CODE":"US","OBJECT_TYPE":"PAYLOAD","DECAY_DATE":null,"TIME_SYSTEM":"UTC","LAUNCH_DATE":"2021-04-29","RCS_SIZE":"LARGE","RA_OF_ASC_NODE":"157.4990","CLASSIFICATION_TYPE":"U","TLE_LINE2":"2 48304  53.0553 157.4990 0001463  66.1290 293.9852 15.06398169 48395","PERIAPSIS":"546.206","MEAN_MOTION":"15.06398169","MEAN_ANOMALY":"293.9852","EPHEMERIS_TYPE":"0","GP_ID":"198568896","MEAN_ELEMENT_THEORY":"SGP4","OBJECT_NAME":"STARLINK-2524","SEMIMAJOR_AXIS":"6925.354","FILE":"3356520","MEAN_MOTION_DOT":"-0.00000365","ARG_OF_PERICENTER":"66.1290","OBJECT_ID":"2021-036AE","ELEMENT_SET_NO":"999","REF_FRAME":"TEME","PERIOD":"95.592","EPOCH":"2022-03-12T13:02:13.298208","NORAD_CAT_ID":"48304","CENTER_NAME":"EARTH","ECCENTRICITY":"0.00014630","REV_AT_EPOCH":"4839","SITE":"AFETR","BSTAR":"-0.00000558220000","APOAPSIS":"548.232","MEAN_MOTION_DDOT":"0.0000000000000"},{"TLE_LINE1":"1 48305U 21036AF  22071.53951415  .00003933  00000-0  28263-3 0  9999","OBJECT_TYPE":"PAYLOAD","COUNTRY_CODE":"US","INCLINATION":"53.0543","DECAY_DATE":null,"TIME_SYSTEM":"UTC","LAUNCH_DATE":"2021-04-29","RA_OF_ASC_NODE":"157.5043","RCS_SIZE":"LARGE","TLE_LINE2":"2 48305  53.0543 157.5043 0001578  54.2417 305.8718 15.06417600 48397","CLASSIFICATION_TYPE":"U","PERIAPSIS":"546.067","MEAN_ANOMALY":"305.8718","MEAN_MOTION":"15.06417600","EPHEMERIS_TYPE":"0","GP_ID":"198569146","MEAN_ELEMENT_THEORY":"SGP4","OBJECT_NAME":"STARLINK-2519","SEMIMAJOR_AXIS":"6925.295","FILE":"3356520","MEAN_MOTION_DOT":"0.00003933","OBJECT_ID":"2021-036AF","ARG_OF_PERICENTER":"54.2417","ELEMENT_SET_NO":"999","REF_FRAME":"TEME","PERIOD":"95.591","NORAD_CAT_ID":"48305","EPOCH":"2022-03-12T12:56:54.022560","ECCENTRICITY":"0.00015780","CENTER_NAME":"EARTH","SITE":"AFETR","REV_AT_EPOCH":"4839","BSTAR":"0.00028263000000","APOAPSIS":"548.252","MEAN_MOTION_DDOT":"0.0000000000000"},{"SITE":"AFETR","REV_AT_EPOCH":"4898","BSTAR":"0.00002015100000","APOAPSIS":"548.191","MEAN_MOTION_DDOT":"0.0000000000000","NORAD_CAT_ID":"48306","EPOCH":"2022-03-12T12:51:34.733952","ECCENTRICITY":"0.00014750","CENTER_NAME":"EARTH","OBJECT_ID":"2021-036AG","ARG_OF_PERICENTER":"60.5870","ELEMENT_SET_NO":"999","REF_FRAME":"TEME","PERIOD":"95.591","OBJECT_NAME":"STARLINK-2523","FILE":"3356615","SEMIMAJOR_AXIS":"6925.305","MEAN_MOTION_DOT":"0.00000019","EPHEMERIS_TYPE":"0","GP_ID":"198574809","MEAN_ELEMENT_THEORY":"SGP4","MEAN_ANOMALY":"299.5266","MEAN_MOTION":"15.06414374","LAUNCH_DATE":"2021-04-29","RA_OF_ASC_NODE":"157.5309","RCS_SIZE":"LARGE","TLE_LINE2":"2 48306  53.0527 157.5309 0001475  60.5870 299.5266 15.06414374 48981","CLASSIFICATION_TYPE":"U","PERIAPSIS":"546.148","TLE_LINE1":"1 48306U 21036AG  22071.53581868  .00000019  00000-0  20151-4 0  9992","OBJECT_TYPE":"PAYLOAD","COUNTRY_CODE":"US","INCLINATION":"53.0527","DECAY_DATE":null,"TIME_SYSTEM":"UTC"},{"MEAN_MOTION":"15.06407286","MEAN_ANOMALY":"295.1654","EPHEMERIS_TYPE":"0","GP_ID":"198605494","MEAN_ELEMENT_THEORY":"SGP4","TLE_LINE1":"1 48307U 21036AH  22071.59849684  .00004036  00000-0  28964-3 0  9994","INCLINATION":"53.0543","COUNTRY_CODE":"US","OBJECT_TYPE":"PAYLOAD","DECAY_DATE":null,"TIME_SYSTEM":"UTC","LAUNCH_DATE":"2021-04-29","RCS_SIZE":"LARGE","RA_OF_ASC_NODE":"157.2435","CLASSIFICATION_TYPE":"U","TLE_LINE2":"2 48307  53.0543 157.2435 0001703  64.9512 295.1654 15.06407286 48406","PERIAPSIS":"546.012","EPOCH":"2022-03-12T14:21:50.126976","NORAD_CAT_ID":"48307","CENTER_NAME":"EARTH","ECCENTRICITY":"0.00017030","REV_AT_EPOCH":"4840","SITE":"AFETR","BSTAR":"0.00028964000000","APOAPSIS":"548.371","MEAN_MOTION_DDOT":"0.0000000000000","OBJECT_NAME":"STARLINK-2528","FILE":"3356931","SEMIMAJOR_AXIS":"6925.326","MEAN_MOTION_DOT":"0.00004036","ARG_OF_PERICENTER":"64.9512","OBJECT_ID":"2021-036AH","ELEMENT_SET_NO":"999","REF_FRAME":"TEME","PERIOD":"95.592"}];
